start=new Date('2022-02-08T00:00:00.000Z').valueOf();
sats=[{"TLE_LINE1":"1 47819U 21018AJ  22038.66832338 -.00001179  00000-0 -60277-4 0  9991","COUNTRY_CODE":"US","OBJECT_ID":"2021-018AJ","BSTAR":"-0.00006027700000","MEAN_ANOMALY":"292.3707","SEMIMAJOR_AXIS":"6925.381","CLASSIFICATION_TYPE":"U","LAUNCH_DATE":"2021-03-11","CENTER_NAME":"EARTH","REV_AT_EPOCH":"5153","RA_OF_ASC_NODE":"105.0815","REF_FRAME":"TEME","TIME_SYSTEM":"UTC","RCS_SIZE":"LARGE","PERIAPSIS":"546.226","EPHEMERIS_TYPE":"0","ELEMENT_SET_NO":"999","GP_ID":"195486027","ECCENTRICITY":"0.00014730","EPOCH":"2022-02-07T16:02:23.140032","FILE":"3294468","MEAN_MOTION_DOT":"-0.00001179","NORAD_CAT_ID":"47819","OBJECT_TYPE":"PAYLOAD","INCLINATION":"53.0529","MEAN_MOTION_DDOT":"0.0000000000000","DECAY_DATE":null,"MEAN_MOTION":"15.06389499","PERIOD":"95.593","ARG_OF_PERICENTER":"67.7438","MEAN_ELEMENT_THEORY":"SGP4","APOAPSIS":"548.266","SITE":"AFETR","TLE_LINE2":"2 47819  53.0529 105.0815 0001473  67.7438 292.3707 15.06389499 51533","OBJECT_NAME":"STARLINK-2402"},{"REV_AT_EPOCH":"5175","LAUNCH_DATE":"2021-03-11","CLASSIFICATION_TYPE":"U","CENTER_NAME":"EARTH","SEMIMAJOR_AXIS":"6925.455","MEAN_ANOMALY":"286.8472","OBJECT_ID":"2021-018AK","COUNTRY_CODE":"US","BSTAR":"-0.00011026000000","TLE_LINE1":"1 47820U 21018AK  22038.51628764 -.00001922  00000-0 -11026-3 0  9996","EPHEMERIS_TYPE":"0","PERIAPSIS":"546.420","RCS_SIZE":"LARGE","TIME_SYSTEM":"UTC","REF_FRAME":"TEME","RA_OF_ASC_NODE":"115.7711","DECAY_DATE":null,"MEAN_MOTION_DDOT":"0.0000000000000","INCLINATION":"53.0554","OBJECT_TYPE":"PAYLOAD","NORAD_CAT_ID":"47820","MEAN_MOTION_DOT":"-0.00001922","EPOCH":"2022-02-07T12:23:27.252096","FILE":"3294379","ECCENTRICITY":"0.00012990","GP_ID":"195481263","ELEMENT_SET_NO":"999","OBJECT_NAME":"STARLINK-2403","TLE_LINE2":"2 47820  53.0554 115.7711 0001299  73.2660 286.8472 15.06365315 51753","SITE":"AFETR","APOAPSIS":"548.219","MEAN_ELEMENT_THEORY":"SGP4","ARG_OF_PERICENTER":"73.2660","PERIOD":"95.594","MEAN_MOTION":"15.06365315"},{"RA_OF_ASC_NODE":"105.8626","TIME_SYSTEM":"UTC","REF_FRAME":"TEME","EPHEMERIS_TYPE":"0","PERIAPSIS":"546.314","RCS_SIZE":"LARGE","MEAN_ANOMALY":"279.5831","COUNTRY_CODE":"US","BSTAR":"-0.00008044200000","OBJECT_ID":"2021-018AL","TLE_LINE1":"1 47821U 21018AL  22038.49415378 -.00001478  00000-0 -80442-4 0  9994","REV_AT_EPOCH":"5183","LAUNCH_DATE":"2021-03-11","CENTER_NAME":"EARTH","CLASSIFICATION_TYPE":"U","SEMIMAJOR_AXIS":"6925.435","ARG_OF_PERICENTER":"80.5318","PERIOD":"95.594","MEAN_MOTION":"15.06371745","MEAN_ELEMENT_THEORY":"SGP4","OBJECT_NAME":"STARLINK-2406","TLE_LINE2":"2 47821  53.0544 105.8626 0001424  80.5318 279.5831 15.06371745 51830","SITE":"AFETR","APOAPSIS":"548.286","ECCENTRICITY":"0.00014240","GP_ID":"195481514","ELEMENT_SET_NO":"999","NORAD_CAT_ID":"47821","MEAN_MOTION_DOT":"-0.00001478","FILE":"3294379","EPOCH":"2022-02-07T11:51:34.886592","OBJECT_TYPE":"PAYLOAD","DECAY_DATE":null,"MEAN_MOTION_DDOT":"0.0000000000000","INCLINATION":"53.0544"},{"RA_OF_ASC_NODE":"114.9123","TIME_SYSTEM":"UTC","REF_FRAME":"TEME","EPHEMERIS_TYPE":"0","PERIAPSIS":"546.047","RCS_SIZE":"LARGE","MEAN_ANOMALY":"305.1193","BSTAR":"-0.00036006000000","COUNTRY_CODE":"US","OBJECT_ID":"2021-018AM","TLE_LINE1":"1 47822U 21018AM  22038.70424559 -.00005640  00000-0 -36006-3 0  9991","REV_AT_EPOCH":"5139","LAUNCH_DATE":"2021-03-11","CENTER_NAME":"EARTH","CLASSIFICATION_TYPE":"U","SEMIMAJOR_AXIS":"6925.368","ARG_OF_PERICENTER":"54.9956","PERIOD":"95.593","MEAN_MOTION":"15.06393517","MEAN_ELEMENT_THEORY":"SGP4","OBJECT_NAME":"STARLINK-2407","SITE":"AFETR","TLE_LINE2":"2 47822  53.0542 114.9123 0001713  54.9956 305.1193 15.06393517 51395","APOAPSIS":"548.420","ECCENTRICITY":"0.00017130","GP_ID":"195488366","ELEMENT_SET_NO":"999","NORAD_CAT_ID":"47822","MEAN_MOTION_DOT":"-0.00005640","EPOCH":"2022-02-07T16:54:06.818976","FILE":"3294563","OBJECT_TYPE":"PAYLOAD","MEAN_MOTION_DDOT":"0.0000000000000","DECAY_DATE":null,"INCLINATION":"53.0542"},{"TIME_SYSTEM":"UTC","REF_FRAME":"TEME","PERIAPSIS":"546.251","EPHEMERIS_TYPE":"0","RCS_SIZE":"LARGE","RA_OF_ASC_NODE":"105.7480","CENTER_NAME":"EARTH","LAUNCH_DATE":"2021-03-11","CLASSIFICATION_TYPE":"U","REV_AT_EPOCH":"5150","SEMIMAJOR_AXIS":"6925.405","MEAN_ANOMALY":"293.3499","TLE_LINE1":"1 47823U 21018AN  22038.52089540 -.00003456  00000-0 -21336-3 0  9992","COUNTRY_CODE":"US","OBJECT_ID":"2021-018AN","BSTAR":"-0.00021336000000","MEAN_ELEMENT_THEORY":"SGP4","OBJECT_NAME":"STARLINK-2408","APOAPSIS":"548.290","SITE":"AFETR","TLE_LINE2":"2 47823  53.0562 105.7480 0001472  66.7644 293.3499 15.06381452 51504","ARG_OF_PERICENTER":"66.7644","MEAN_MOTION":"15.06381452","PERIOD":"95.593","OBJECT_TYPE":"PAYLOAD","DECAY_DATE":null,"MEAN_MOTION_DDOT":"0.0000000000000","INCLINATION":"53.0562","ELEMENT_SET_NO":"999","GP_ID":"195486541","ECCENTRICITY":"0.00014720","NORAD_CAT_ID":"47823","FILE":"3294488","EPOCH":"2022-02-07T12:30:05.362560","MEAN_MOTION_DOT":"-0.00003456"},{"RA_OF_ASC_NODE":"104.8977","REF_FRAME":"TEME","TIME_SYSTEM":"UTC","RCS_SIZE":"LARGE","PERIAPSIS":"546.452","EPHEMERIS_TYPE":"0","TLE_LINE1":"1 47824U 21018AP  22038.70887871  .00001240  00000-0  10216-3 0  9998","COUNTRY_CODE":"US","BSTAR":"0.00010216000000","OBJECT_ID":"2021-018AP","MEAN_ANOMALY":"290.1910","SEMIMAJOR_AXIS":"6925.409","LAUNCH_DATE":"2021-03-11","CLASSIFICATION_TYPE":"U","CENTER_NAME":"EARTH","REV_AT_EPOCH":"5153","MEAN_MOTION":"15.06380330","PERIOD":"95.593","ARG_OF_PERICENTER":"69.9206","MEAN_ELEMENT_THEORY":"SGP4","APOAPSIS":"548.095","SITE":"AFETR","TLE_LINE2":"2 47824  53.0545 104.8977 0001186  69.9206 290.1910 15.06380330 51538","OBJECT_NAME":"STARLINK-2409","ELEMENT_SET_NO":"999","GP_ID":"195486543","ECCENTRICITY":"0.00011860","EPOCH":"2022-02-07T17:00:47.120544","FILE":"3294488","MEAN_MOTION_DOT":"0.00001240","NORAD_CAT_ID":"47824","OBJECT_TYPE":"PAYLOAD","INCLINATION":"53.0545","DECAY_DATE":null,"MEAN_MOTION_DDOT":"0.0000000000000"},{"MEAN_ELEMENT_THEORY":"SGP4","APOAPSIS":"548.310","SITE":"AFETR","TLE_LINE2":"2 47825  53.0565 106.0019 0001525  69.3257 290.7895 15.06386939 51831","OBJECT_NAME":"STARLINK-2410","MEAN_MOTION":"15.06386939","PERIOD":"95.593","ARG_OF_PERICENTER":"69.3257","OBJECT_TYPE":"PAYLOAD","INCLINATION":"53.0565","DECAY_DATE":null,"MEAN_MOTION_DDOT":"0.0000000000000","GP_ID":"195481015","ELEMENT_SET_NO":"999","ECCENTRICITY":"0.00015250","EPOCH":"2022-02-07T11:05:09.125952","FILE":"3294379","MEAN_MOTION_DOT":"-0.00000692","NORAD_CAT_ID":"47825","REF_FRAME":"TEME","TIME_SYSTEM":"UTC","RCS_SIZE":"LARGE","PERIAPSIS":"546.197","EPHEMERIS_TYPE":"0","RA_OF_ASC_NODE":"106.0019","SEMIMAJOR_AXIS":"6925.389","CENTER_NAME":"EARTH","LAUNCH_DATE":"2021-03-11","CLASSIFICATION_TYPE":"U","REV_AT_EPOCH":"5183","TLE_LINE1":"1 47825U 21018AQ  22038.46191118 -.00000692  00000-0 -27602-4 0  9994","BSTAR":"-0.00002760200000","COUNTRY_CODE":"US","OBJECT_ID":"2021-018AQ","MEAN_ANOMALY":"290.7895"},{"DECAY_DATE":null,"MEAN_MOTION_DDOT":"0.0000000000000","INCLINATION":"53.0558","OBJECT_TYPE":"PAYLOAD","NORAD_CAT_ID":"47826","EPOCH":"2022-02-07T12:35:23.652384","FILE":"3294379","MEAN_MOTION_DOT":"-0.00001023","ELEMENT_SET_NO":"999","GP_ID":"195480262","ECCENTRICITY":"0.00014310","OBJECT_NAME":"STARLINK-2411","APOAPSIS":"548.273","SITE":"AFETR","TLE_LINE2":"2 47826  53.0558 105.7311 0001431  65.8121 294.3017 15.06377641 51849","MEAN_ELEMENT_THEORY":"SGP4","ARG_OF_PERICENTER":"65.8121","MEAN_MOTION":"15.06377641","PERIOD":"95.594","CENTER_NAME":"EARTH","LAUNCH_DATE":"2021-03-11","CLASSIFICATION_TYPE":"U","REV_AT_EPOCH":"5184","SEMIMAJOR_AXIS":"6925.417","MEAN_ANOMALY":"294.3017","TLE_LINE1":"1 47826U 21018AR  22038.52457931 -.00001023  00000-0 -49838-4 0  9994","COUNTRY_CODE":"US","BSTAR":"-0.00004983800000","OBJECT_ID":"2021-018AR","PERIAPSIS":"546.291","EPHEMERIS_TYPE":"0","RCS_SIZE":"LARGE","TIME_SYSTEM":"UTC","REF_FRAME":"TEME","RA_OF_ASC_NODE":"105.7311"},{"REF_FRAME":"TEME","TIME_SYSTEM":"UTC","RCS_SIZE":"LARGE","PERIAPSIS":"546.309","EPHEMERIS_TYPE":"0","RA_OF_ASC_NODE":"96.2104","SEMIMAJOR_AXIS":"6925.339","CLASSIFICATION_TYPE":"U","LAUNCH_DATE":"2021-03-11","CENTER_NAME":"EARTH","REV_AT_EPOCH":"5202","TLE_LINE1":"1 47827U 21018AS  22038.41763934 -.00000199  00000-0  55415-5 0  9997","COUNTRY_CODE":"US","BSTAR":"0.00000554150000","OBJECT_ID":"2021-018AS","MEAN_ANOMALY":"293.4139","MEAN_ELEMENT_THEORY":"SGP4","APOAPSIS":"548.098","SITE":"AFETR","TLE_LINE2":"2 47827  53.0553  96.2104 0001292  66.6986 293.4139 15.06403246 52029","OBJECT_NAME":"STARLINK-2413","MEAN_MOTION":"15.06403246","PERIOD":"95.592","ARG_OF_PERICENTER":"66.6986","OBJECT_TYPE":"PAYLOAD","INCLINATION":"53.0553","DECAY_DATE":null,"MEAN_MOTION_DDOT":"0.0000000000000","GP_ID":"195480013","ELEMENT_SET_NO":"999","ECCENTRICITY":"0.00012920","EPOCH":"2022-02-07T10:01:24.038976","FILE":"3294379","MEAN_MOTION_DOT":"-0.00000199","NORAD_CAT_ID":"47827"},{"RCS_SIZE":"LARGE","EPHEMERIS_TYPE":"0","PERIAPSIS":"546.178","REF_FRAME":"TEME","TIME_SYSTEM":"UTC","RA_OF_ASC_NODE":"115.7991","SEMIMAJOR_AXIS":"6925.385","REV_AT_EPOCH":"5170","LAUNCH_DATE":"2021-03-11","CENTER_NAME":"EARTH","CLASSIFICATION_TYPE":"U","COUNTRY_CODE":"US","BSTAR":"-0.00000623340000","OBJECT_ID":"2021-018AT","TLE_LINE1":"1 47828U 21018AT  22038.50892521 -.00000374  00000-0 -62334-5 0  9997","MEAN_ANOMALY":"299.4696","TLE_LINE2":"2 47828  53.0558 115.7991 0001548  60.6447 299.4696 15.06388166 51707","SITE":"AFETR","APOAPSIS":"548.322","OBJECT_NAME":"STARLINK-2415","MEAN_ELEMENT_THEORY":"SGP4","PERIOD":"95.593","MEAN_MOTION":"15.06388166","ARG_OF_PERICENTER":"60.6447","INCLINATION":"53.0558","DECAY_DATE":null,"MEAN_MOTION_DDOT":"0.0000000000000","OBJECT_TYPE":"PAYLOAD","MEAN_MOTION_DOT":"-0.00000374","EPOCH":"2022-02-07T12:12:51.138144","FILE":"3294379","NORAD_CAT_ID":"47828","ECCENTRICITY":"0.00015480","ELEMENT_SET_NO":"999","GP_ID":"195481264"}];
